[{"OBJECT_NAME":"SAUDISAT 5B","OBJECT_ID":"2018-102C","EPOCH":"2026-03-09T22:59:17.457216","MEAN_MOTION":15.27248504,"ECCENTRICITY":0.00120577,"INCLINATION":97.3281,"RA_OF_ASC_NODE":135.3629,"ARG_OF_PERICENTER":124.0958,"MEAN_ANOMALY":236.1427,"EPHEMERIS_TYPE":0,"CLASSIFICATION_TYPE":"U","NORAD_CAT_ID":43833,"ELEMENT_SET_NO":999,"REV_AT_EPOCH":40064,"BSTAR":0.00024926623,"MEAN_MOTION_DOT":6.596e-5,"MEAN_MOTION_DDOT":0},{"OBJECT_NAME":"STARLINK-31806","OBJECT_ID":"2024-082K","EPOCH":"2026-03-09T12:12:44.157024","MEAN_MOTION":15.2757104,"ECCENTRICITY":0.0001213,"INCLINATION":42.999,"RA_OF_ASC_NODE":140.8852,"ARG_OF_PERICENTER":210.6429,"MEAN_ANOMALY":149.4352,"EPHEMERIS_TYPE":0,"CLASSIFICATION_TYPE":"U","NORAD_CAT_ID":59640,"ELEMENT_SET_NO":999,"REV_AT_EPOCH":10478,"BSTAR":-5.8252e-5,"MEAN_MOTION_DOT":-1.864e-5,"MEAN_MOTION_DDOT":0}]
